{"type": "FeatureCollection", "features": [ {"type": "Feature", "properties": {"norad_id": 34819, "name": "COSMOS 2251 DEB", "group": "cosmos-2251-debris", "lat": 60.640600041207136, "lon": -70.12032586779004, "alt_km": 679.4507479656841, "timestamp": "2025-12-13T20:38:51.403126+00:00", "meta": {"OBJECT_NAME": "COSMOS 2251 DEB", "OBJECT_ID": "1993-036ABJ", "EPOCH": "2025-12-12T03:39:15.255360", "MEAN_MOTION": 14.63952127, "ECCENTRICITY": 0.00156734, "INCLINATION": 74.0187, "RA_OF_ASC_NODE": 143.7886, "ARG_OF_PERICENTER": 237.8131, "MEAN_ANOMALY": 238.9847, "EPHEMERIS_TYPE": 0, "CLASSIFICATION_TYPE": "U", "NORAD_CAT_ID": 34819, "ELEMENT_SET_NO": 999, "REV_AT_EPOCH": 88220, "BSTAR": 0.002313028, "MEAN_MOTION_DOT": 0.00012122, "MEAN_MOTION_DDOT": 0}, "tle": {"line1": "1 34819U 93036ABJ 25346.15225990  .00012122  00000+0  23130-2 0  9997", "line2": "2 34819  74.0187 143.7886 0015673 237.8131 238.9847 14.63952127882209"}}, "geometry": {"type": "Point", "coordinates": [-70.12032586779004, 60.640600041207136]}}, {"type": "Feature", "properties": {"norad_id": 34823, "name": "COSMOS 2251 DEB", "group": "cosmos-2251-debris", "lat": 52.52760961152011, "lon": -101.76015875404745, "alt_km": 648.7763243962036, "timestamp": "2025-12-13T20:38:51.403136+00:00", "meta": {"OBJECT_NAME": "COSMOS 2251 DEB", "OBJECT_ID": "1993-036ABN", "EPOCH": "2025-12-12T17:39:59.934240", "MEAN_MOTION": 14.54931387, "ECCENTRICITY": 0.0154702, "INCLINATION": 74.041, "RA_OF_ASC_NODE": 102.2866, "ARG_OF_PERICENTER": 187.0633, "MEAN_ANOMALY": 172.8354, "EPHEMERIS_TYPE": 0, "CLASSIFICATION_TYPE": "U", "NORAD_CAT_ID": 34823, "ELEMENT_SET_NO": 999, "REV_AT_EPOCH": 88381, "BSTAR": 0.0011937013, "MEAN_MOTION_DOT": 6.001e-05, "MEAN_MOTION_DDOT": 0}, "tle": {"line1": "1 34823U 93036ABN 25346.73611035  .00006001  00000+0  11937-2 0  9996", "line2": "2 34823  74.0410 102.2866 0154702 187.0633 172.8354 14.54931387883813"}}, "geometry": {"type": "Point", "coordinates": [-101.76015875404745, 52.52760961152011]}}, {"type": "Feature", "properties": {"norad_id": 34845, "name": "COSMOS 2251 DEB", "group": "cosmos-2251-debris", "lat": 54.28641643329268, "lon": 169.74407362336083, "alt_km": 739.3406674610642, "timestamp": "2025-12-13T20:38:51.403147+00:00", "meta": {"OBJECT_NAME": "COSMOS 2251 DEB", "OBJECT_ID": "1993-036ABP", "EPOCH": "2025-12-09T20:04:05.418048", "MEAN_MOTION": 14.45850049, "ECCENTRICITY": 0.00222586, "INCLINATION": 74.0237, "RA_OF_ASC_NODE": 153.7694, "ARG_OF_PERICENTER": 315.2139, "MEAN_ANOMALY": 44.7222, "EPHEMERIS_TYPE": 0, "CLASSIFICATION_TYPE": "U", "NORAD_CAT_ID": 34845, "ELEMENT_SET_NO": 999, "REV_AT_EPOCH": 87424, "BSTAR": 0.00046671234, "MEAN_MOTION_DOT": 1.636e-05, "MEAN_MOTION_DDOT": 0}, "tle": {"line1": "1 34845U 93036ABP 25343.83617382  .00001636  00000+0  46671-3 0  9992", "line2": "2 34845  74.0237 153.7694 0022258 315.2139  44.7222 14.45850049874243"}}, "geometry": {"type": "Point", "coordinates": [169.74407362336083, 54.28641643329268]}}, {"type": "Feature", "properties": {"norad_id": 34846, "name": "COSMOS 2251 DEB", "group": "cosmos-2251-debris", "lat": 2.103048418736642, "lon": -99.71727092352545, "alt_km": 722.1318264310457, "timestamp": "2025-12-13T20:38:51.403157+00:00", "meta": {"OBJECT_NAME": "COSMOS 2251 DEB", "OBJECT_ID": "1993-036ABQ", "EPOCH": "2025-12-13T00:43:45.655392", "MEAN_MOTION": 14.47219414, "ECCENTRICITY": 0.00260783, "INCLINATION": 74.0308, "RA_OF_ASC_NODE": 261.2316, "ARG_OF_PERICENTER": 327.5744, "MEAN_ANOMALY": 32.381, "EPHEMERIS_TYPE": 0, "CLASSIFICATION_TYPE": "U", "NORAD_CAT_ID": 34846, "ELEMENT_SET_NO": 999, "REV_AT_EPOCH": 87408, "BSTAR": 0.00132201, "MEAN_MOTION_DOT": 4.827e-05, "MEAN_MOTION_DDOT": 0}, "tle": {"line1": "1 34846U 93036ABQ 25347.03038953  .00004827  00000+0  13220-2 0  9998", "line2": "2 34846  74.0308 261.2316 0026078 327.5744  32.3810 14.47219414874086"}}, "geometry": {"type": "Point", "coordinates": [-99.71727092352545, 2.103048418736642]}}, {"type": "Feature", "properties": {"norad_id": 34852, "name": "COSMOS 2251 DEB", "group": "cosmos-2251-debris", "lat": 25.88105052390803, "lon": -91.10373550828996, "alt_km": 756.524860748882, "timestamp": "2025-12-13T20:38:51.403167+00:00", "meta": {"OBJECT_NAME": "COSMOS 2251 DEB", "OBJECT_ID": "1993-036ABW", "EPOCH": "2025-12-13T00:28:22.968192", "MEAN_MOTION": 14.37005395, "ECCENTRICITY": 0.00162085, "INCLINATION": 74.0331, "RA_OF_ASC_NODE": 262.4571, "ARG_OF_PERICENTER": 5.5447, "MEAN_ANOMALY": 354.5882, "EPHEMERIS_TYPE": 0, "CLASSIFICATION_TYPE": "U", "NORAD_CAT_ID": 34852, "ELEMENT_SET_NO": 999, "REV_AT_EPOCH": 87538, "BSTAR": 0.00018601182, "MEAN_MOTION_DOT": 5.26e-06, "MEAN_MOTION_DDOT": 0}, "tle": {"line1": "1 34852U 93036ABW 25347.01971028  .00000526  00000+0  18601-3 0  9993", "line2": "2 34852  74.0331 262.4571 0016208   5.5447 354.5882 14.37005395875384"}}, "geometry": {"type": "Point", "coordinates": [-91.10373550828996, 25.88105052390803]}}, {"type": "Feature", "properties": {"norad_id": 34854, "name": "COSMOS 2251 DEB", "group": "cosmos-2251-debris", "lat": 74.01515718441006, "lon": -112.38770195433588, "alt_km": 678.8879118405575, "timestamp": "2025-12-13T20:38:51.403178+00:00", "meta": {"OBJECT_NAME": "COSMOS 2251 DEB", "OBJECT_ID": "1993-036ABY", "EPOCH": "2025-12-12T18:13:14.177568", "MEAN_MOTION": 14.76625947, "ECCENTRICITY": 0.00661438, "INCLINATION": 74.0288, "RA_OF_ASC_NODE": 158.5442, "ARG_OF_PERICENTER": 270.2181, "MEAN_ANOMALY": 89.1414, "EPHEMERIS_TYPE": 0, "CLASSIFICATION_TYPE": "U", "NORAD_CAT_ID": 34854, "ELEMENT_SET_NO": 999, "REV_AT_EPOCH": 71882, "BSTAR": 0.0010403851, "MEAN_MOTION_DOT": 7.508e-05, "MEAN_MOTION_DDOT": 0}, "tle": {"line1": "1 34854U 93036ABY 25346.75919187  .00007508  00000+0  10404-2 0  9992", "line2": "2 34854  74.0288 158.5442 0066143 270.2181  89.1414 14.76625947718829"}}, "geometry": {"type": "Point", "coordinates": [-112.38770195433588, 74.01515718441006]}}, {"type": "Feature", "properties": {"norad_id": 34856, "name": "COSMOS 2251 DEB", "group": "cosmos-2251-debris", "lat": -69.3655436804311, "lon": 32.892028887283935, "alt_km": 544.5480882234106, "timestamp": "2025-12-13T20:38:51.403188+00:00", "meta": {"OBJECT_NAME": "COSMOS 2251 DEB", "OBJECT_ID": "1993-036ACA", "EPOCH": "2025-12-12T13:10:18.783264", "MEAN_MOTION": 15.0605006, "ECCENTRICITY": 0.00328676, "INCLINATION": 73.9969, "RA_OF_ASC_NODE": 85.2433, "ARG_OF_PERICENTER": 223.1017, "MEAN_ANOMALY": 151.9744, "EPHEMERIS_TYPE": 0, "CLASSIFICATION_TYPE": "U", "NORAD_CAT_ID": 34856, "ELEMENT_SET_NO": 999, "REV_AT_EPOCH": 89109, "BSTAR": 0.002633255, "MEAN_MOTION_DOT": 0.00039084, "MEAN_MOTION_DDOT": 0}, "tle": {"line1": "1 34856U 93036ACA 25346.54882851  .00039084  00000+0  26333-2 0  9990", "line2": "2 34856  73.9969  85.2433 0032867 223.1017 151.9744 15.06050060891099"}}, "geometry": {"type": "Point", "coordinates": [32.892028887283935, -69.3655436804311]}}, {"type": "Feature", "properties": {"norad_id": 34857, "name": "COSMOS 2251 DEB", "group": "cosmos-2251-debris", "lat": 70.14217482848858, "lon": -127.83832330974299, "alt_km": 717.3771695163296, "timestamp": "2025-12-13T20:38:51.403199+00:00", "meta": {"OBJECT_NAME": "COSMOS 2251 DEB", "OBJECT_ID": "1993-036ACB", "EPOCH": "2025-12-12T18:32:39.378336", "MEAN_MOTION": 14.58894225, "ECCENTRICITY": 0.00658466, "INCLINATION": 74.0152, "RA_OF_ASC_NODE": 106.7661, "ARG_OF_PERICENTER": 231.2435, "MEAN_ANOMALY": 281.2698, "EPHEMERIS_TYPE": 0, "CLASSIFICATION_TYPE": "U", "NORAD_CAT_ID": 34857, "ELEMENT_SET_NO": 999, "REV_AT_EPOCH": 87901, "BSTAR": 0.0017553159, "MEAN_MOTION_DOT": 8.453e-05, "MEAN_MOTION_DDOT": 0}, "tle": {"line1": "1 34857U 93036ACB 25346.77267799  .00008453  00000+0  17553-2 0  9994", "line2": "2 34857  74.0152 106.7661 0065846 231.2435 281.2698 14.58894225879013"}}, "geometry": {"type": "Point", "coordinates": [-127.83832330974299, 70.14217482848858]}}, {"type": "Feature", "properties": {"norad_id": 34859, "name": "COSMOS 2251 DEB", "group": "cosmos-2251-debris", "lat": -71.20827786263968, "lon": -79.9750315977365, "alt_km": 526.916941724965, "timestamp": "2025-12-13T20:38:51.403209+00:00", "meta": {"OBJECT_NAME": "COSMOS 2251 DEB", "OBJECT_ID": "1993-036ACD", "EPOCH": "2025-12-12T00:52:56.324928", "MEAN_MOTION": 15.14557844, "ECCENTRICITY": 0.0002471, "INCLINATION": 74.0312, "RA_OF_ASC_NODE": 341.1213, "ARG_OF_PERICENTER": 336.6743, "MEAN_ANOMALY": 83.5787, "EPHEMERIS_TYPE": 0, "CLASSIFICATION_TYPE": "U", "NORAD_CAT_ID": 34859, "ELEMENT_SET_NO": 999, "REV_AT_EPOCH": 88348, "BSTAR": 0.0060515, "MEAN_MOTION_DOT": 0.0011338, "MEAN_MOTION_DDOT": 0}, "tle": {"line1": "1 34859U 93036ACD 25346.03676302  .00113380  00000+0  60515-2 0  9991", "line2": "2 34859  74.0312 341.1213 0002471 336.6743  83.5787 15.14557844883482"}}, "geometry": {"type": "Point", "coordinates": [-79.9750315977365, -71.20827786263968]}}, {"type": "Feature", "properties": {"norad_id": 34861, "name": "COSMOS 2251 DEB", "group": "cosmos-2251-debris", "lat": 40.118683721576346, "lon": -145.4127699358035, "alt_km": 555.5385063421345, "timestamp": "2025-12-13T20:38:51.403220+00:00", "meta": {"OBJECT_NAME": "COSMOS 2251 DEB", "OBJECT_ID": "1993-036ACF", "EPOCH": "2025-12-13T05:54:34.792992", "MEAN_MOTION": 15.02637068, "ECCENTRICITY": 0.00072385, "INCLINATION": 74.0184, "RA_OF_ASC_NODE": 49.816, "ARG_OF_PERICENTER": 44.3694, "MEAN_ANOMALY": 12.8468, "EPHEMERIS_TYPE": 0, "CLASSIFICATION_TYPE": "U", "NORAD_CAT_ID": 34861, "ELEMENT_SET_NO": 999, "REV_AT_EPOCH": 88100, "BSTAR": 0.0042625844, "MEAN_MOTION_DOT": 0.00057281, "MEAN_MOTION_DDOT": 0}, "tle": {"line1": "1 34861U 93036ACF 25347.24623603  .00057281  00000+0  42626-2 0  9994", "line2": "2 34861  74.0184  49.8160 0007238  44.3694  12.8468 15.02637068881000"}}, "geometry": {"type": "Point", "coordinates": [-145.4127699358035, 40.118683721576346]}}]}